OBJECT_NAME,OBJECT_ID,EPOCH,MEAN_MOTION,ECCENTRICITY,INCLINATION,RA_OF_ASC_NODE,ARG_OF_PERICENTER,MEAN_ANOMALY,EPHEMERIS_TYPE,CLASSIFICATION_TYPE,NORAD_CAT_ID,ELEMENT_SET_NO,REV_AT_EPOCH,BSTAR,MEAN_MOTION_DOT,MEAN_MOTION_DDOT
PROBA-1,2001-049B,2026-06-11T15:03:23.421888,15.07474718,.00557654,97.9606,170.9651,140.5011,220.0301,0,U,26958,999,34278,.16987261E-3,.2597E-4,0
CUTE-1 (CO-55),2003-031E,2026-06-11T13:23:16.003104,14.24332340,.00091392,98.6735,171.1873,194.6488,165.4428,0,U,27844,999,19087,.12921213E-3,.255E-5,0
CUBESAT XI-IV (CO-57),2003-031J,2026-06-11T13:02:34.843776,14.23617902,.00086807,98.6768,170.8906,214.5229,145.5387,0,U,27848,999,19057,.11636506E-3,.221E-5,0
APRIZESAT 4,2009-041D,2026-06-11T10:59:24.088416,14.83871583,.00427953,98.1412,237.6641,341.9353,18.0337,0,U,35684,999,91051,.72459902E-4,.551E-5,0
APRIZESAT 3,2009-041F,2026-06-11T09:56:58.230240,14.96223120,.00627523,98.2053,315.3624,86.3032,274.5361,0,U,35686,999,91551,.10394447E-3,.1151E-4,0
PROBA-2,2009-059B,2026-06-11T11:07:11.147808,14.54859902,.00121235,98.2450,345.8955,301.6481,58.3533,0,U,36037,999,88069,.46366936E-4,.154E-5,0
APRIZESAT 5,2011-044E,2026-06-11T12:50:19.788864,14.81063784,.00527917,98.2454,95.4151,22.3527,337.9968,0,U,37792,999,79795,.13582343E-3,.1019E-4,0
APRIZESAT 6,2011-044F,2026-06-11T13:04:05.370240,14.76907563,.00444399,98.2370,72.9288,103.5403,68.8645,0,U,37793,999,79631,.97373526E-4,.64E-5,0
PROBA-V,2013-021A,2026-06-11T11:54:46.581408,14.23595841,.00049176,98.3582,141.3840,136.9652,223.1913,0,U,39159,999,68030,.46357117E-4,.65E-6,0
APRIZESAT 7,2013-066A,2026-06-11T14:03:37.594656,14.91552327,.00345918,97.7707,115.8865,228.2771,131.5488,0,U,39416,999,68039,.8156907E-4,.768E-5,0
APRIZESAT 8,2013-066K,2026-06-11T02:06:36.657792,14.87640786,.00446914,97.8220,109.6410,307.2502,52.4642,0,U,39425,999,67876,.10067289E-3,.874E-5,0
BUGSAT-1 (TITA),2014-033E,2026-06-11T14:56:04.127136,15.15523275,.00276224,98.0423,254.8461,197.2751,162.7543,0,U,40014,999,65499,.23113012E-3,.4344E-4,0
SAUDISAT 4,2014-033G,2026-06-11T08:53:16.150848,14.79536639,.00462435,97.7575,308.7066,92.3247,268.3261,0,U,40016,999,64521,.83536304E-4,.584E-5,0
APRIZESAT 9,2014-033J,2026-06-11T15:24:19.892160,14.74207063,.00653073,97.9053,295.9762,217.1673,142.5005,0,U,40018,999,64274,.9236451E-4,.578E-5,0
APRIZESAT 10,2014-033K,2026-06-11T08:15:49.553856,14.70877300,.00775168,97.9642,289.4343,292.8263,66.4770,0,U,40019,999,64139,.61137389E-4,.338E-5,0
TECHDEMOSAT-1 (TDS-1),2014-037H,2026-06-11T12:54:43.126560,15.13208718,.00046535,98.3806,154.1908,292.1078,67.9656,0,U,40076,999,64737,.41384893E-3,.7275E-4,0
TECHNOSAT,2017-042E,2026-06-11T09:33:22.331232,15.04918472,.00187773,97.4263,320.2771,112.5016,247.8201,0,U,42829,999,48583,.2208006E-3,.3079E-4,0
FLYING LAPTOP,2017-042G,2026-06-11T15:40:08.256576,15.01109878,.00193265,97.4660,318.3997,139.6985,220.5677,0,U,42831,999,48562,.24442084E-3,.3083E-4,0
HAWK-A,2018-099H,2026-06-11T02:42:45.096480,15.24571307,.00333378,97.3922,214.4281,308.3691,51.4553,0,U,43765,999,41217,.22779315E-3,.5626E-4,0
HAWK-B,2018-099AN,2026-06-11T14:05:44.257920,15.22764518,.00308597,97.3969,214.3229,325.5039,34.4194,0,U,43794,999,41218,.22610363E-3,.5276E-4,0
HAWK-C,2018-099AT,2026-06-11T02:28:43.708224,15.28017972,.00389918,97.3897,215.3009,308.2574,51.5159,0,U,43799,999,41298,.25124713E-3,.6945E-4,0
SALSAT,2020-068K,2026-06-11T14:03:12.574944,15.29719030,.00085257,97.8849,165.3093,331.4069,28.6701,0,U,46495,999,31450,.24314384E-3,.6923E-4,0
HAWK-2C,2021-006CT,2026-06-11T14:38:13.433280,15.34596063,.00060321,97.2285,207.0311,206.1668,153.9272,0,U,47502,999,29864,.18198387E-3,.6025E-4,0
HAWK-2A,2021-006CW,2026-06-11T14:41:53.506176,15.34611001,.00054674,97.2327,207.7081,209.6620,150.4314,0,U,47505,999,29864,.18179625E-3,.6021E-4,0
HAWK-2B,2021-006CZ,2026-06-11T14:35:54.066624,15.34690380,.00060301,97.2198,206.0446,207.7655,152.3268,0,U,47508,999,29864,.20206487E-3,.6719E-4,0
HAWK-3B,2021-059BE,2026-06-11T12:31:24.354624,15.69091856,.00036286,97.6668,358.6970,358.9023,1.2230,0,U,48931,999,27696,.37920648E-3,.43874E-3,0
HAWK-3C,2021-059BX,2026-06-11T12:30:57.140352,15.69087859,.00039642,97.6789,4.3728,359.6641,0.4616,0,U,48948,999,27696,.37137686E-3,.42957E-3,0
HAWK-3A,2021-059CG,2026-06-11T12:30:48.207456,15.69093450,.00040756,97.6731,1.5819,1.3563,358.7708,0,U,48957,999,27696,.38506683E-3,.44565E-3,0
HAWK-5C,2022-057Y,2026-06-11T10:22:25.373568,15.51188382,.00053048,97.6585,321.7300,99.9710,260.2140,0,U,52754,999,22545,.2829677E-3,.16456E-3,0
HAWK-5B,2022-057AA,2026-06-11T10:22:12.563904,15.51188759,.00059617,97.6591,320.0784,93.0818,267.1115,0,U,52756,999,22545,.28169127E-3,.16383E-3,0
